"spkid","full_name","pdes","name","prefix","neo","pha","H","G","M1","M2","K1","K2","PC","diameter","extent","albedo","rot_per","GM","BV","UB","IR","spec_B","spec_T","H_sigma","diameter_sigma","orbit_id","epoch","epoch.mjd","epoch.cal","equinox","e","a","q","i","om","w","ma","ad","n","tp","tp.cal","per","per.y","moid","moid.ld","moid_jup","t_jup","sigma_e","sigma_a","sigma_q","sigma_i","sigma_om","sigma_w","sigma_ma","sigma_ad","sigma_n","sigma_tp","sigma_per","class","producer","data_arc","first_obs","last_obs","n_obs_used","n_del_obs_used","n_dop_obs_used","condition_code","rms","two_body","A1","A2","A3","DT"
54197626,"       (2013 VU71)","2013 VU71",,,N,N,8.30,,,,,,,,,,,,,,,,,.33655,,2,2459600.5,59600,2022-01-21.0000000,J2000,.6638856635313171,101.9333143719628,34.26124832418593,13.88379714168025,140.9269960395777,281.4017940372712,357.6940756691793,169.6053804197396,.0009577008117775407,2462008.271093501296,2028-08-24.7710935,375900.2765506922,1029.15886803749,33.303,12960.52851,29.3697,6.478,.00026785,.087937,.005641,.0001583,.0021509,.03526,.0063241,.14632,1.2393E-6,4.9905,486.43,TNO,"Otto Matic",1849,2013-11-08,2018-12-01,17,,,3,.19948,,,,,
54197646,"       (2013 VV71)","2013 VV71",,,N,N,7.52,,,,,,,,,,,,,,,,,.41174,,1,2459600.5,59600,2022-01-21.0000000,J2000,.05566998155154248,40.66178874118758,38.39814771211295,16.65912652690664,103.6568858477903,56.06680497196909,253.0485466187019,42.92542977026221,.003801231805577002,2487736.498763449144,2099-02-01.9987634,94706.14222258786,259.291286030357,37.4367,14569.240539,33.1328,5.476,.00064628,.010377,.030501,.0004954,.0036996,.34951,.42178,.010954,1.4551E-6,108.34,36.253,TNO,"Otto Matic",1449,2013-11-13,2017-11-01,14,,,4,.23744,,,,,
54199270,"       (2013 VW71)","2013 VW71",,,N,N,7.07,,,,,,,,,,,,,,,,,.34213,,1,2459600.5,59600,2022-01-21.0000000,J2000,.0186469036149794,44.47951248152803,43.6501072994437,1.592565521914613,63.26466271330933,305.0608994523623,4.335659377230284,45.30891766361236,.003322492782072494,2458295.558300615540,2018-06-26.0583006,108352.3798584268,296.65264848303,42.6501,16598.139417,38.6971,5.961,.0002384,.013369,.0027545,.00061381,.03376,1.5111,1.4555,.013619,1.498E-6,437.87,48.852,TNO,"Otto Matic",1792,2013-10-13,2018-09-09,23,,,4,.17972,,,,,
54199261,"       (2013 VX71)","2013 VX71",,,N,N,7.36,,,,,,,,,,,,,,,,,.39775,,1,2459600.5,59600,2022-01-21.0000000,J2000,.0903786732996003,44.35604306592644,40.34720274080808,2.965050191610863,30.30782357686836,321.6161347222122,23.22016934366683,48.36488339104481,.003336375160585786,2452640.800258202997,2003-01-01.3002582,107901.5346513948,295.418301578083,39.3431,15311.154227,35.3779,5.925,.0004013,.018963,.0066739,.0010875,.0072706,.3408,.276,.020677,2.1396E-6,84.053,69.195,TNO,"Otto Matic",1844,2013-11-08,2018-11-26,17,,,4,.12647,,,,,
54199491,"       (2013 VY71)","2013 VY71",,,N,N,8.28,,,,,,,,,,,,,,,,,.36555,,1,2459600.5,59600,2022-01-21.0000000,J2000,.1603028228290141,39.70550794548483,33.34060293996377,10.60445515886925,63.76575646976723,325.8810567882786,358.3659626384974,46.07041295100591,.003939380579066304,2460015.295506223948,2023-03-11.7955062,91384.92531364557,250.198289701973,32.352,12590.42784,28.3961,5.491,.00022456,.011613,.0021405,.00043228,.0025834,.091898,.06473,.013475,1.7283E-6,16.482,40.092,TNO,"Otto Matic",1831,2013-09-09,2018-09-14,15,,,4,.23386,,,,,
54199494,"       (2013 VZ71)","2013 VZ71",,,N,N,8.10,,,,,,,,,,,,,,,,,.3829,,1,2459600.5,59600,2022-01-21.0000000,J2000,.2876167958364604,52.88216376929991,37.67236526907492,28.06672328851219,174.3458234986247,211.8506482491011,2.193449124257282,68.0919622695249,.002562950678687171,2458744.670372649996,2019-09-18.1703727,140463.1009849959,384.567011594787,36.7076,14285.496692,32.8515,5.487,.00018001,.016502,.0026922,.00061658,.000621,.079282,.041462,.021248,1.1996E-6,16.328,65.747,TNO,"Otto Matic",1888,2013-09-29,2018-11-30,20,,,4,.2366,,,,,
54199499,"       (2013 VA72)","2013 VA72",,,N,N,7.89,,,,,,,,,,,,,,,,,.32223,,1,2459600.5,59600,2022-01-21.0000000,J2000,.1168841025778342,41.82818862918499,36.93913833880634,15.0187835556622,158.9260953892903,201.2702625212539,30.86969603208523,46.71723891956365,.003643346587160665,2451127.604190177357,1998-11-10.1041902,98810.2535368603,270.527730422615,35.941,13987.15897,31.9922,5.564,.00029284,.018451,.012198,.00047827,.0022668,.28772,.23167,.020608,2.4107E-6,60.326,65.38,TNO,"Otto Matic",1527,2013-10-03,2017-12-08,18,,,4,.17332,,,,,
54199500,"       (2013 VB72)","2013 VB72",,,N,N,7.32,,,,,,,,,,,,,,,,,.40943,,1,2459600.5,59600,2022-01-21.0000000,J2000,.4570868581669864,65.94902583350718,35.80459281609596,17.9840402731274,56.49926110591682,276.3288910992566,24.27033834241987,96.09345885091838,.001840312164302539,2446412.336158449734,1985-12-12.8361584,195618.9862693412,535.575595535499,34.8454,13560.784318,31.0442,6.102,.00049403,.046102,.011684,.00077302,.0013762,.043724,.025567,.067175,1.9297E-6,4.6778,205.12,TNO,"Otto Matic",1479,2013-10-04,2017-10-22,19,,,4,.22552,,,,,
54199504,"       (2013 VD72)","2013 VD72",,,N,N,8.34,,,,,,,,,,,,,,,,,.34527,,1,2459600.5,59600,2022-01-21.0000000,J2000,.2900398731583194,48.3295482839843,34.31205222989863,22.11872189563255,153.9795004182071,192.8905287652194,29.53257019518755,62.34704433806998,.00293349241699355,2449533.124327198839,1994-06-29.6243272,122720.617211942,335.990738431053,33.3094,12963.019198,29.3414,5.512,.00035987,.020215,.0082227,.00045454,.0016518,.066011,.03246,.026078,1.8405E-6,10.016,76.996,TNO,"Otto Matic",1859,2013-10-04,2018-11-06,14,,,4,.24523,,,,,
54199502,"       (2013 VE72)","2013 VE72",,,N,N,7.89,,,,,,,,,,,,,,,,,.32642,,1,2459600.5,59600,2022-01-21.0000000,J2000,.2887849696609739,43.96169529343376,31.26621845187451,13.53207924239421,123.0054614823909,200.0995724598077,39.76809656513369,56.657172134993,.003381367905935611,2447839.550682617151,1989-11-09.0506826,106465.7884071297,291.4874425931,30.2582,11775.583694,26.2326,5.530,.00019403,.0094982,.0082437,.00013483,.0025392,.050849,.028908,.012241,1.0959E-6,5.8455,34.504,TNO,"Otto Matic",1792,2013-10-13,2018-09-09,19,,,4,.1679,,,,,
54199505,"       (2013 VF72)","2013 VF72",,,N,N,7.23,,,,,,,,,,,,,,,,,.35217,,1,2459600.5,59600,2022-01-21.0000000,J2000,.09684584852058604,39.52041262666258,35.69302473194976,26.5519217196929,188.4432288590194,65.80321753545995,141.2907056502057,43.3478005213754,.003967088311102419,2423984.780215092484,1924-07-18.2802151,90746.65643124018,248.450804739877,34.7693,13531.168481,30.763,5.039,.00052108,.0092808,.019081,.0010852,.0011786,.38305,.48305,.01018,1.3974E-6,113.73,31.966,TNO,"Otto Matic",1531,2013-10-27,2018-01-05,16,,,5,.14639,,,,,
54200423,"       (2013 VH72)","2013 VH72",,,N,N,7.84,,,,,,,,,,,,,,,,,.53972,,1,2459600.5,59600,2022-01-21.0000000,J2000,.1539028270222526,45.7866492822628,38.73995451784617,9.685817092275617,103.4260166466045,236.381803966293,38.66438611825409,52.83334404667943,.003181235206322933,2447446.608944913645,1988-10-12.1089449,113163.5910744588,309.825026897902,37.7423,14688.170891,33.7851,5.892,.0003848,.018769,.012656,.00016294,.0058255,.15126,.10994,.021658,1.9561E-6,31.519,69.583,TNO,"Otto Matic",1775,2013-11-04,2018-09-14,12,,,4,.16247,,,,,
3841654,"       (2013 WG114)","2013 WG114",,,N,N,6.68,,,,,,,,,,,,,,,,,.48496,,4,2459600.5,59600,2022-01-21.0000000,J2000,.07155912858073242,44.51610554538963,41.33057182475363,1.469123377216442,70.12419867497516,275.1942767747948,24.19567227532975,47.70163926602562,.003318396898110447,2452309.126177565685,2002-02-03.6261776,108486.1187656577,297.018805655463,40.3245,15693.085665,36.3478,5.950,.00012605,.00868,.0051422,.00021293,.01794,.24142,.21028,.0093011,9.7056E-7,62.188,31.73,TNO,"Otto Matic",1888,2013-09-08,2018-11-09,42,,,4,.15239,,,,,
3989579,"       (2013 WH123)","2013 WH123",,,N,N,7.12,,,,,,,,,,,,,,,,,.22734,,3,2459600.5,59600,2022-01-21.0000000,J2000,.1261353672407677,46.63307241174384,40.75099269752322,9.318653596393473,130.0405023602166,183.7496022894004,53.04013114488784,52.51515212596446,.003095016931348431,2442463.233121857455,1975-02-19.7331219,116316.0034291496,318.455861544557,39.7381,15464.876377,35.6728,5.973,.00036267,.011076,.012315,.00030581,.0035079,.10393,.071783,.012473,1.1027E-6,21.532,41.441,TNO,"Otto Matic",1856,2013-09-10,2018-10-10,32,,,4,.17251,,,,,
3989581,"       (2013 WJ123)","2013 WJ123",,,N,N,7.85,,,,,,,,,,,,,,,,,.21078,,"JPL 5",2459600.5,59600,2022-01-21.0000000,J2000,.2315847293599816,39.76039038104713,30.55249113540512,9.187110366325131,85.11556753222894,277.0147302561435,26.52437506053928,48.96828962668914,.003931226930154472,2452853.401566916911,2003-08-01.9015669,91574.46425659643,250.717219046123,29.5638,11505.344046,25.6512,5.440,.00017461,.01108,.0022809,.0001067,.00075949,.025999,.023469,.013646,1.6433E-6,3.8279,38.279,TNO,"Otto Matic",2929,2013-11-04,2021-11-11,23,,,4,.23262,,,,,
3989588,"       (2013 WK123)","2013 WK123",,,N,N,7.84,,,,,,,,,,,,,,,,,.25487,,4,2459600.5,59600,2022-01-21.0000000,J2000,.4527086336304408,55.81217801440231,30.5455231655633,15.05317828381964,169.9534099050285,187.9051283068462,22.397811947081,81.0788328632413,.002363799398303863,2450125.156211033609,1996-02-11.6562110,152297.1874255984,416.96697447118,29.5431,11497.288227,25.5849,5.733,.00030579,.030483,.002449,.00046648,.0023139,.013663,.02015,.044283,1.9366E-6,1.5537,124.77,TNO,"Otto Matic",2548,2013-11-23,2020-11-14,25,,,4,.20789,,,,,
54197647,"       (2013 WA139)","2013 WA139",,,N,N,6.85,,,,,,,,,,,,,,,,,.32565,,1,2459600.5,59600,2022-01-21.0000000,J2000,.1380590995098814,43.77505751161097,37.7315124905647,2.309064426931362,69.93232502971674,46.7947902564568,271.0538422138098,49.81860253265725,.003403015959820794,2485737.949496673591,2093-08-13.4494967,105788.5135569443,289.633165111415,36.7482,14301.296994,32.4653,5.860,.00038093,.010356,.016711,.00030713,.015823,.089577,.12186,.011785,1.2075E-6,28.743,37.538,TNO,"Otto Matic",1830,2013-11-22,2018-11-26,25,,,4,.17447,,,,,
